[{"OBJECT_NAME":"STARLINK-30594","OBJECT_ID":"2023-161A","EPOCH":"2025-09-18T09:35:19.887072","MEAN_MOTION":15.30190495,"ECCENTRICITY":0.00014906,"INCLINATION":53.1597,"RA_OF_ASC_NODE":245.775,"ARG_OF_PERICENTER":89.8262,"MEAN_ANOMALY":270.291,"EPHEMERIS_TYPE":0,"CLASSIFICATION_TYPE":"U","NORAD_CAT_ID":58097,"ELEMENT_SET_NO":999,"REV_AT_EPOCH":10804,"BSTAR":5.5155862e-5,"MEAN_MOTION_DOT":1.274e-5,"MEAN_MOTION_DDOT":0},{"OBJECT_NAME":"STARLINK-30614","OBJECT_ID":"2023-161B","EPOCH":"2025-09-18T09:30:46.489824","MEAN_MOTION":15.3017358,"ECCENTRICITY":0.00011315,"INCLINATION":53.1589,"RA_OF_ASC_NODE":245.7527,"ARG_OF_PERICENTER":68.7424,"MEAN_ANOMALY":291.3697,"EPHEMERIS_TYPE":0,"CLASSIFICATION_TYPE":"U","NORAD_CAT_ID":58098,"ELEMENT_SET_NO":999,"REV_AT_EPOCH":10804,"BSTAR":7.8856371e-5,"MEAN_MOTION_DOT":1.975e-5,"MEAN_MOTION_DDOT":0},{"OBJECT_NAME":"STARLINK-30607","OBJECT_ID":"2023-161C","EPOCH":"2025-09-18T08:01:23.036160","MEAN_MOTION":15.30199743,"ECCENTRICITY":0.00010692,"INCLINATION":53.1586,"RA_OF_ASC_NODE":236.0789,"ARG_OF_PERICENTER":88.513,"MEAN_ANOMALY":271.5993,"EPHEMERIS_TYPE":0,"CLASSIFICATION_TYPE":"U","NORAD_CAT_ID":58099,"ELEMENT_SET_NO":999,"REV_AT_EPOCH":10816,"BSTAR":3.7083707e-5,"MEAN_MOTION_DOT":7.39e-6,"MEAN_MOTION_DDOT":0},{"OBJECT_NAME":"STARLINK-30600","OBJECT_ID":"2023-161D","EPOCH":"2025-09-18T08:10:23.680704","MEAN_MOTION":15.30186903,"ECCENTRICITY":0.00012959,"INCLINATION":53.1596,"RA_OF_ASC_NODE":246.1066,"ARG_OF_PERICENTER":98.1415,"MEAN_ANOMALY":261.9733,"EPHEMERIS_TYPE":0,"CLASSIFICATION_TYPE":"U","NORAD_CAT_ID":58100,"ELEMENT_SET_NO":999,"REV_AT_EPOCH":10803,"BSTAR":3.4738722e-5,"MEAN_MOTION_DOT":6.69e-6,"MEAN_MOTION_DDOT":0},{"OBJECT_NAME":"STARLINK-30605","OBJECT_ID":"2023-161E","EPOCH":"2025-09-18T09:24:41.362560","MEAN_MOTION":15.30197157,"ECCENTRICITY":0.00013914,"INCLINATION":53.1588,"RA_OF_ASC_NODE":245.7284,"ARG_OF_PERICENTER":99.0707,"MEAN_ANOMALY":261.0451,"EPHEMERIS_TYPE":0,"CLASSIFICATION_TYPE":"U","NORAD_CAT_ID":58101,"ELEMENT_SET_NO":999,"REV_AT_EPOCH":10804,"BSTAR":7.7326362e-5,"MEAN_MOTION_DOT":1.931e-5,"MEAN_MOTION_DDOT":0},{"OBJECT_NAME":"STARLINK-30592","OBJECT_ID":"2023-161F","EPOCH":"2025-09-18T10:54:11.476800","MEAN_MOTION":15.30205724,"ECCENTRICITY":0.00010871,"INCLINATION":53.1594,"RA_OF_ASC_NODE":245.4037,"ARG_OF_PERICENTER":88.6712,"MEAN_ANOMALY":271.4413,"EPHEMERIS_TYPE":0,"CLASSIFICATION_TYPE":"U","NORAD_CAT_ID":58102,"ELEMENT_SET_NO":999,"REV_AT_EPOCH":10805,"BSTAR":-1.9344002e-5,"MEAN_MOTION_DOT":-9.32e-6,"MEAN_MOTION_DDOT":0},{"OBJECT_NAME":"STARLINK-30589","OBJECT_ID":"2023-161G","EPOCH":"2025-09-18T10:17:49.832736","MEAN_MOTION":15.30180243,"ECCENTRICITY":0.00021056,"INCLINATION":53.1601,"RA_OF_ASC_NODE":245.76,"ARG_OF_PERICENTER":61.9815,"MEAN_ANOMALY":298.1399,"EPHEMERIS_TYPE":0,"CLASSIFICATION_TYPE":"U","NORAD_CAT_ID":58103,"ELEMENT_SET_NO":999,"REV_AT_EPOCH":10804,"BSTAR":8.8103653e-5,"MEAN_MOTION_DOT":2.249e-5,"MEAN_MOTION_DDOT":0},{"OBJECT_NAME":"STARLINK-30617","OBJECT_ID":"2023-161H","EPOCH":"2025-09-18T10:22:24.222720","MEAN_MOTION":15.30200404,"ECCENTRICITY":0.00010876,"INCLINATION":53.1594,"RA_OF_ASC_NODE":245.7806,"ARG_OF_PERICENTER":73.9893,"MEAN_ANOMALY":286.1227,"EPHEMERIS_TYPE":0,"CLASSIFICATION_TYPE":"U","NORAD_CAT_ID":58104,"ELEMENT_SET_NO":999,"REV_AT_EPOCH":10804,"BSTAR":0.0001163454,"MEAN_MOTION_DOT":3.088e-5,"MEAN_MOTION_DDOT":0},{"OBJECT_NAME":"STARLINK-30616","OBJECT_ID":"2023-161J","EPOCH":"2025-09-18T10:53:20.722848","MEAN_MOTION":15.30191524,"ECCENTRICITY":0.00011455,"INCLINATION":53.1576,"RA_OF_ASC_NODE":232.4487,"ARG_OF_PERICENTER":70.4022,"MEAN_ANOMALY":289.7103,"EPHEMERIS_TYPE":0,"CLASSIFICATION_TYPE":"U","NORAD_CAT_ID":58105,"ELEMENT_SET_NO":999,"REV_AT_EPOCH":10822,"BSTAR":-3.561599e-6,"MEAN_MOTION_DOT":-4.65e-6,"MEAN_MOTION_DDOT":0},{"OBJECT_NAME":"STARLINK-30612","OBJECT_ID":"2023-161K","EPOCH":"2025-09-18T07:55:51.996288","MEAN_MOTION":15.30210651,"ECCENTRICITY":2.157e-5,"INCLINATION":53.16,"RA_OF_ASC_NODE":233.1156,"ARG_OF_PERICENTER":153.6788,"MEAN_ANOMALY":206.4223,"EPHEMERIS_TYPE":0,"CLASSIFICATION_TYPE":"U","NORAD_CAT_ID":58106,"ELEMENT_SET_NO":999,"REV_AT_EPOCH":10821,"BSTAR":-0.00018782065,"MEAN_MOTION_DOT":-5.919e-5,"MEAN_MOTION_DDOT":0},{"OBJECT_NAME":"STARLINK-30421","OBJECT_ID":"2023-161L","EPOCH":"2025-09-16T05:53:46.333824","MEAN_MOTION":15.30194667,"ECCENTRICITY":9.328e-5,"INCLINATION":53.1625,"RA_OF_ASC_NODE":242.8206,"ARG_OF_PERICENTER":44.9218,"MEAN_ANOMALY":315.1859,"EPHEMERIS_TYPE":0,"CLASSIFICATION_TYPE":"U","NORAD_CAT_ID":58107,"ELEMENT_SET_NO":999,"REV_AT_EPOCH":10789,"BSTAR":1.1533361e-5,"MEAN_MOTION_DOT":-1.7e-7,"MEAN_MOTION_DDOT":0},{"OBJECT_NAME":"STARLINK-30611","OBJECT_ID":"2023-161M","EPOCH":"2025-09-18T10:07:55.049088","MEAN_MOTION":15.30173579,"ECCENTRICITY":7.267e-5,"INCLINATION":53.1647,"RA_OF_ASC_NODE":232.9211,"ARG_OF_PERICENTER":205.6795,"MEAN_ANOMALY":154.417,"EPHEMERIS_TYPE":0,"CLASSIFICATION_TYPE":"U","NORAD_CAT_ID":58108,"ELEMENT_SET_NO":999,"REV_AT_EPOCH":10822,"BSTAR":0.00022414736,"MEAN_MOTION_DOT":6.28e-5,"MEAN_MOTION_DDOT":0},{"OBJECT_NAME":"STARLINK-30606","OBJECT_ID":"2023-161N","EPOCH":"2025-09-18T08:05:49.879968","MEAN_MOTION":15.3019534,"ECCENTRICITY":0.00015105,"INCLINATION":53.1592,"RA_OF_ASC_NODE":246.093,"ARG_OF_PERICENTER":94.8065,"MEAN_ANOMALY":265.3108,"EPHEMERIS_TYPE":0,"CLASSIFICATION_TYPE":"U","NORAD_CAT_ID":58109,"ELEMENT_SET_NO":999,"REV_AT_EPOCH":10803,"BSTAR":1.5868558e-5,"MEAN_MOTION_DOT":1.11e-6,"MEAN_MOTION_DDOT":0},{"OBJECT_NAME":"STARLINK-30596","OBJECT_ID":"2023-161P","EPOCH":"2025-09-17T09:35:39.500736","MEAN_MOTION":15.30196435,"ECCENTRICITY":0.00013693,"INCLINATION":53.1591,"RA_OF_ASC_NODE":250.1985,"ARG_OF_PERICENTER":88.1023,"MEAN_ANOMALY":272.0135,"EPHEMERIS_TYPE":0,"CLASSIFICATION_TYPE":"U","NORAD_CAT_ID":58110,"ELEMENT_SET_NO":999,"REV_AT_EPOCH":10789,"BSTAR":3.0279692e-5,"MEAN_MOTION_DOT":5.38e-6,"MEAN_MOTION_DDOT":0},{"OBJECT_NAME":"STARLINK-30595","OBJECT_ID":"2023-161Q","EPOCH":"2025-09-16T17:12:44.516160","MEAN_MOTION":15.3018814,"ECCENTRICITY":0.00014033,"INCLINATION":53.1591,"RA_OF_ASC_NODE":253.7607,"ARG_OF_PERICENTER":91.949,"MEAN_ANOMALY":268.1672,"EPHEMERIS_TYPE":0,"CLASSIFICATION_TYPE":"U","NORAD_CAT_ID":58111,"ELEMENT_SET_NO":999,"REV_AT_EPOCH":10778,"BSTAR":-3.397512e-6,"MEAN_MOTION_DOT":-4.6e-6,"MEAN_MOTION_DDOT":0},{"OBJECT_NAME":"STARLINK-30593","OBJECT_ID":"2023-161R","EPOCH":"2025-09-18T08:19:31.037664","MEAN_MOTION":15.30197423,"ECCENTRICITY":5.861e-5,"INCLINATION":53.1651,"RA_OF_ASC_NODE":246.1545,"ARG_OF_PERICENTER":64.399,"MEAN_ANOMALY":295.7071,"EPHEMERIS_TYPE":0,"CLASSIFICATION_TYPE":"U","NORAD_CAT_ID":58112,"ELEMENT_SET_NO":999,"REV_AT_EPOCH":10803,"BSTAR":4.7844662e-5,"MEAN_MOTION_DOT":1.058e-5,"MEAN_MOTION_DDOT":0}]
