STARLINK-30594          
1 58097U 23161A   25261.39953573  .00001274  00000+0  55156-4 0  9991
2 58097  53.1597 245.7750 0001490  89.8262 270.2910 15.30190495108041
STARLINK-30614          
1 58098U 23161B   25261.39637141  .00001975  00000+0  78856-4 0  9992
2 58098  53.1589 245.7527 0001131  68.7424 291.3697 15.30173580108045
STARLINK-30607          
1 58099U 23161C   25261.33429440  .00000739  00000+0  37084-4 0  9993
2 58099  53.1586 236.0789 0001069  88.5130 271.5993 15.30199743108161
STARLINK-30600          
1 58100U 23161D   25261.34055186  .00000669  00000+0  34739-4 0  9995
2 58100  53.1596 246.1066 0001295  98.1415 261.9733 15.30186903108034
STARLINK-30605          
1 58101U 23161E   25261.39214540  .00001931  00000+0  77326-4 0  9994
2 58101  53.1588 245.7284 0001391  99.0707 261.0451 15.30197157108046
STARLINK-30592          
1 58102U 23161F   25261.45429950 -.00000932  00000+0 -19344-4 0  9993
2 58102  53.1594 245.4037 0001087  88.6712 271.4413 15.30205724108053
STARLINK-30589          
1 58103U 23161G   25261.42904899  .00002249  00000+0  88104-4 0  9992
2 58103  53.1601 245.7600 0002105  61.9815 298.1399 15.30180243108048
STARLINK-30617          
1 58104U 23161H   25261.43222480  .00003088  00000+0  11635-3 0  9999
2 58104  53.1594 245.7806 0001087  73.9893 286.1227 15.30200404108044
STARLINK-30616          
1 58105U 23161J   25261.45371207 -.00000465  00000+0 -35616-5 0  9999
2 58105  53.1576 232.4487 0001145  70.4022 289.7103 15.30191524108228
STARLINK-30612          
1 58106U 23161K   25261.33046292 -.00005919  00000+0 -18782-3 0  9992
2 58106  53.1600 233.1156 0000215 153.6788 206.4223 15.30210651108219
STARLINK-30421          
1 58107U 23161L   25259.24567516 -.00000017  00000+0  11533-4 0  9998
2 58107  53.1625 242.8206 0000932  44.9218 315.1859 15.30194667107890
STARLINK-30611          
1 58108U 23161M   25261.42216492  .00006280  00000+0  22415-3 0  9993
2 58108  53.1647 232.9211 0000726 205.6795 154.4170 15.30173579108225
STARLINK-30606          
1 58109U 23161N   25261.33738287  .00000111  00000+0  15869-4 0  9998
2 58109  53.1592 246.0930 0001510  94.8065 265.3108 15.30195340108031
STARLINK-30596          
1 58110U 23161P   25260.39976274  .00000538  00000+0  30280-4 0  9992
2 58110  53.1591 250.1985 0001369  88.1023 272.0135 15.30196435107894
STARLINK-30595          
1 58111U 23161Q   25259.71718190 -.00000460  00000+0 -33975-5 0  9999
2 58111  53.1591 253.7607 0001403  91.9490 268.1672 15.30188140107788
STARLINK-30593          
1 58112U 23161R   25261.34688701  .00001058  00000+0  47845-4 0  9998
2 58112  53.1651 246.1545 0000586  64.3990 295.7071 15.30197423108035
